IRIDIUM 159             
1 43578U 18061K   24341.33715818  .00000744  00000+0  25858-3 0  9998
2 43578  86.3960 289.8119 0002275  85.0336 275.1119 14.34215927333429
IRIDIUM 180             
1 43922U 19002A   24340.77850023  .00000683  00000+0  23663-3 0  9996
2 43922  86.3996 226.9137 0002129  82.4474 277.6964 14.34221564308954
IRIDIUM 176             
1 43923U 19002B   24341.41596135  .00002201  00000+0  34531-3 0  9994
2 43923  86.6117 226.6555 0003220  84.4515 275.7070 14.72223630317185
IRIDIUM 168             
1 43924U 19002C   24340.77215788  .00000122  00000+0  36333-4 0  9998
2 43924  86.3998 226.9777 0002135  84.7102 275.4337 14.34219261308937
IRIDIUM 173             
1 43925U 19002D   24340.75948097  .00000697  00000+0  24184-3 0  9990
2 43925  86.3993 226.8951 0002119  80.9368 279.2068 14.34214861308912
IRIDIUM 169             
1 43926U 19002E   24340.85853649  .00001037  00000+0  33248-3 0  9990
2 43926  86.4227 258.4695 0003294  53.4072 306.7429 14.38613884309956
IRIDIUM 172             
1 43927U 19002F   24341.17174865  .00000656  00000+0  22731-3 0  9994
2 43927  86.3994 226.7291 0002149  86.2121 273.9320 14.34218668308988
IRIDIUM 175             
1 43928U 19002G   24341.34264603  .00002103  00000+0  32971-3 0  9990
2 43928  86.1530 190.1580 0001584  41.0429 319.0906 14.72234723317164
